GLOBALSTAR M068         
1 32266U 07048D   24280.65751684 -.00000030  00000+0  40692-3 0  9993
2 32266  51.9915 355.0894 0000427 305.3753 219.2395 12.62802177785528
GLOBALSTAR M079         
1 37188U 10054A   24281.20510285 -.00000039  00000+0  36067-3 0  9994
2 37188  52.0030 189.9056 0000968  75.3085  80.9464 12.62265335645188
GLOBALSTAR M074         
1 37189U 10054B   24280.72509935 -.00000051  00000+0  29563-3 0  9998
2 37189  52.0011 190.7235 0000537  82.5821 294.4746 12.62256977645050
GLOBALSTAR M076         
1 37190U 10054C   24281.17699073 -.00000034  00000+0  38875-3 0  9990
2 37190  52.0018 189.5037 0000835  95.3861  51.3312 12.62271251645187
GLOBALSTAR M077         
1 37191U 10054D   24280.89649424 -.00000053  00000+0  28566-3 0  9991
2 37191  52.0058 147.1398 0000828  78.1221 294.6355 12.62265178645161
GLOBALSTAR M075         
1 37192U 10054E   24280.92879222 -.00000048  00000+0  31240-3 0  9994
2 37192  51.9937 232.6534 0000525  77.2009 323.0973 12.62285596643860
GLOBALSTAR M073         
1 37193U 10054F   24280.92292699 -.00000084  00000+0  10979-3 0  9998
2 37193  52.0043 146.2981 0000908  90.7644 282.5319 12.62270681645850
GLOBALSTAR M083         
1 37739U 11033A   24280.88541061 -.00000094  00000+0  55632-4 0  9994
2 37739  51.9840  95.4872 0000957  82.7465  60.6471 12.62265824614863
GLOBALSTAR M088         
1 37740U 11033B   24280.70443567 -.00000017  00000+0  48378-3 0  9992
2 37740  51.9764   1.7433 0000594  94.5701  67.1281 12.62262855610389
GLOBALSTAR M091         
1 37741U 11033C   24280.87840116 -.00000062  00000+0  23476-3 0  9994
2 37741  52.0010 324.3203 0000622  71.9358  98.6332 12.62268101611190
GLOBALSTAR M085         
1 37742U 11033D   24280.46686819 -.00000082  00000+0  12233-3 0  9999
2 37742  51.9856 276.8335 0000596  58.2893 102.5956 12.62266823611653
GLOBALSTAR M081         
1 37743U 11033E   24281.01948999 -.00000072  00000+0  17721-3 0  9998
2 37743  51.9951 277.7807 0000687  79.8186 313.6663 12.62270547612254
GLOBALSTAR M089         
1 37744U 11033F   24280.89759312 -.00000058  00000+0  25408-3 0  9998
2 37744  51.9921 232.4284 0000480 101.5185 276.1452 12.62270056612706
GLOBALSTAR M084         
1 38040U 11080A   24280.85787322 -.00000094  00000+0  56451-4 0  9991
2 38040  51.9988  99.7001 0000701 111.9471  25.9340 12.62268401590677
GLOBALSTAR M080         
1 38041U 11080B   24280.91243125 -.00000091  00000+0  69400-4 0  9992
2 38041  52.0042 101.0524 0000987 118.5483  27.1157 12.62266687590809
GLOBALSTAR M082         
1 38042U 11080C   24280.84951459 -.00000100  00000+0  18846-4 0  9990
2 38042  52.0083  56.6615 0000789  62.2454  97.5422 12.62267333591507
GLOBALSTAR M092         
1 38043U 11080D   24280.80872618 -.00000051  00000+0  29552-3 0  9996
2 38043  52.0069 147.1519 0000662  79.5056  14.9592 12.62267254589959
GLOBALSTAR M090         
1 38044U 11080E   24280.79461300 -.00000083  00000+0  11825-3 0  9996
2 38044  51.9892  50.9632 0000767  82.0397  68.3059 12.62268388591618
GLOBALSTAR M086         
1 38045U 11080F   24280.82223903 -.00000088  00000+0  88489-4 0  9992
2 38045  51.9908  51.4095 0001655 110.9502  45.6119 12.62267951591566
GLOBALSTAR M097         
1 39072U 13005A   24280.81461078 -.00000067  00000+0  20460-3 0  9999
2 39072  52.0063 325.7299 0000664  86.3383 273.7559 12.62271190538817
GLOBALSTAR M093         
1 39073U 13005B   24280.78778708 -.00000065  00000+0  21760-3 0  9999
2 39073  51.9821 319.5174 0000668  78.5844 281.5097 12.62265161538769
GLOBALSTAR M094         
1 39074U 13005C   24280.86700664 -.00000072  00000+0  17957-3 0  9996
2 39074  51.9946 233.4016 0000822  64.8606 295.2346 12.62269023540384
GLOBALSTAR M096         
1 39075U 13005D   24280.72184248 -.00000084  00000+0  10781-3 0  9997
2 39075  52.0063 282.1622 0000741  62.4311 297.6631 12.62271127539286
GLOBALSTAR M078         
1 39076U 13005E   24280.77433924 -.00000135  00000+0 -17197-3 0  9997
2 39076  51.9905   6.8534 0000790  12.2979 347.7906 12.62273559537911
GLOBALSTAR M095         
1 39077U 13005F   24280.64269389 -.00000059  00000+0  24971-3 0  9998
2 39077  51.9829   4.5794 0000822  56.5311 303.5634 12.62265539537756
GLOBALSTAR M087         
1 52888U 22064A   24281.11775131 -.00000002  00000+0  23957-3 0  9999
2 52888  51.9751 178.0805 0008759 291.4313  68.5653 13.37588518112503
